     2.100          NAVIGATION                              RINEX VERSION / TYPE
fic2rin                                 08/17/2013 00:14:16 PGM / RUN BY / DATE
                                                            END OF HEADER
 5 13  8 16  8  0  0.0 -.399523880333D-03 -.227373675443D-12  .000000000000D+00
     .920000000000D+02 -.130312500000D+02  .503842415630D-08 -.182677391263D+01
    -.949949026108D-06  .317463243846D-02  .815838575363D-05  .515367556381D+04
     .460800000000D+06 -.502914190292D-07 -.180177147817D+01 -.651925802231D-07
     .948020223019D+00  .214968750000D+03  .248180261727D+00 -.817784063989D-08
    -.257153568621D-09  .100000000000D+01  .175300000000D+04  .000000000000D+00
     .240000000000D+01  .000000000000D+00 -.977888703346D-08  .920000000000D+02
     .453606000000D+06  .400000000000D+01
 7 13  8 16  8  0  0.0  .247911084443D-03  .420641299570D-11  .000000000000D+00
     .480000000000D+02  .692500000000D+02  .448018661776D-08  .793597475446D+00
     .365078449249D-05  .680282746907D-02  .302121043205D-05  .515367625809D+04
     .460800000000D+06 -.186264514923D-08  .316350137619D+00  .186264514923D-07
     .975348270050D+00  .324437500000D+03 -.290501175959D+01 -.840427864337D-08
    -.339299847486D-10  .100000000000D+01  .175300000000D+04  .000000000000D+00
     .240000000000D+01  .000000000000D+00 -.107102096081D-07  .480000000000D+02
     .453606000000D+06  .400000000000D+01
 8 13  8 16  8  0  0.0  .798702239990D-05  .227373675443D-12  .000000000000D+00
     .610000000000D+02  .498125000000D+02  .399516641472D-08  .223255004976D+00
     .251084566116D-05  .133070826996D-01  .301189720631D-05  .515370187950D+04
     .460800000000D+06  .540167093277D-07  .409360393218D+00  .137835741043D-06
     .998173265054D+00  .336187500000D+03 -.285289007455D+01 -.823141430002D-08
    -.517878714584D-10  .100000000000D+01  .175300000000D+04  .000000000000D+00
     .240000000000D+01  .000000000000D+00 -.372529029846D-08  .610000000000D+02
     .453606000000D+06  .400000000000D+01
 9 13  8 16  8  0  0.0  .261638779193D-03  .261479726760D-11  .000000000000D+00
     .150000000000D+02  .694375000000D+02  .411088552060D-08  .196957518046D+01
     .317208468914D-05  .169808813371D-01  .290572643280D-05  .515372644424D+04
     .460800000000D+06  .143423676491D-06  .293701210657D+00 -.132247805595D-06
     .983963523356D+00  .325906250000D+03  .171459385647D+01 -.793175896103D-08
    -.632169189527D-10  .100000000000D+01  .175300000000D+04  .000000000000D+00
     .240000000000D+01  .000000000000D+00 -.558793544769D-08  .150000000000D+02
     .453606000000D+06  .400000000000D+01
11 13  8 16  8  0  0.0 -.410730950534D-03 -.352429196937D-11  .000000000000D+00
     .740000000000D+02  .196875000000D+01  .637526555540D-08  .101113473240D+01
     .745058059692D-07  .143839776283D-01  .814907252789D-05  .515368473244D+04
     .460800000000D+06 -.197440385818D-06  .313629947512D+01 -.558793544769D-08
     .889630371419D+00  .187250000000D+03  .119707667466D+01 -.911716548082D-08
     .358586365133D-09  .100000000000D+01  .175300000000D+04  .000000000000D+00
     .240000000000D+01  .000000000000D+00 -.116415321827D-07  .740000000000D+02
     .453606000000D+06  .400000000000D+01
12 13  8 16  8  0  0.0  .150802545249D-03  .216004991671D-11  .000000000000D+00
     .580000000000D+02 -.739687500000D+02  .402266756025D-08  .486022688499D+00
    -.393018126488D-05  .454471947160D-02  .526569783688D-05  .515378950119D+04
     .460800000000D+06  .316649675369D-07  .137598648967D+01  .689178705215D-07
     .984687517125D+00  .288812500000D+03  .328933218280D+00 -.803819196582D-08
    -.241438628317D-09  .100000000000D+01  .175300000000D+04  .000000000000D+00
     .240000000000D+01  .000000000000D+00 -.116415321827D-07  .580000000000D+02
     .453606000000D+06  .400000000000D+01
13 13  8 16  8  0  0.0  .895480625331D-04 -.375166564481D-11  .000000000000D+00
     .400000000000D+02  .106500000000D+03  .403623955415D-08  .311626708832D+01
     .555440783501D-05  .506809318904D-02  .101439654827D-04  .515372198868D+04
     .460800000000D+06  .409781932831D-07 -.649744591876D+00  .102445483208D-06
     .980679055756D+00  .194375000000D+03  .218940578680D+01 -.772639326386D-08
    -.142863093678D-11  .100000000000D+01  .175300000000D+04  .000000000000D+00
     .240000000000D+01  .000000000000D+00 -.107102096081D-07  .400000000000D+02
     .453606000000D+06  .400000000000D+01
14 13  8 16  8  0  0.0  .217822846025D-03 -.682121026330D-12  .000000000000D+00
     .860000000000D+02  .891875000000D+02  .417553107049D-08 -.293862865007D+01
     .463239848614D-05  .727535993792D-02  .911392271519D-05  .515378516388D+04
     .460800000000D+06  .119209289551D-06 -.679555423011D+00 -.912696123123D-07
     .973307310613D+00  .209250000000D+03 -.202647762473D+01 -.774067957323D-08
    -.707172313708D-10  .100000000000D+01  .175300000000D+04  .000000000000D+00
     .240000000000D+01  .000000000000D+00 -.884756445885D-08  .860000000000D+02
     .453606000000D+06  .400000000000D+01
16 13  8 16  8  0  0.0 -.248558353633D-03  .682121026330D-12  .000000000000D+00
     .240000000000D+02 -.993437500000D+02  .389516224914D-08 -.171500912040D+01
    -.512786209583D-05  .706598255783D-02  .620633363724D-05  .515369959450D+04
     .460800000000D+06  .558793544769D-08  .139441823050D+01 -.465661287308D-07
     .985357464848D+00  .272218750000D+03  .138108658197D+00 -.797068915405D-08
    -.176435920693D-09  .100000000000D+01  .175300000000D+04  .000000000000D+00
     .240000000000D+01  .000000000000D+00 -.977888703346D-08  .240000000000D+02
     .453606000000D+06  .400000000000D+01
17 13  8 16  8  0  0.0 -.117202289402D-04 -.375166564481D-11  .000000000000D+00
     .790000000000D+02 -.649687500000D+02  .406231206875D-08 -.267937223033D+01
    -.323168933392D-05  .844951579347D-02  .101756304502D-04  .515367138481D+04
     .460800000000D+06  .763684511185D-07  .243052115630D+01 -.707805156708D-07
     .966250271334D+00  .185125000000D+03 -.219221872957D+01 -.760531679197D-08
     .346443002170D-09  .100000000000D+01  .175300000000D+04  .000000000000D+00
     .240000000000D+01  .000000000000D+00 -.102445483208D-07  .790000000000D+02
     .453606000000D+06  .400000000000D+01
19 13  8 16  8  0  0.0 -.396927352995D-03 -.284217094304D-11  .000000000000D+00
     .350000000000D+02 -.550312500000D+02  .419410327266D-08  .280220371842D+01
    -.283308327198D-05  .950124254450D-02  .110417604446D-04  .515373545647D+04
     .460800000000D+06 -.968575477600D-07  .248222686644D+01 -.279396772385D-07
     .963489690790D+00  .167687500000D+03  .361867196650D+00 -.773925094229D-08
     .386801826134D-09  .100000000000D+01  .175300000000D+04  .000000000000D+00
     .240000000000D+01  .000000000000D+00 -.144354999065D-07  .350000000000D+02
     .453606000000D+06  .400000000000D+01
20 13  8 16  8  0  0.0  .116020906717D-03  .250111042988D-11  .000000000000D+00
     .830000000000D+02 -.509375000000D+01  .561344810836D-08 -.684176482788D+00
    -.216066837311D-06  .543217116501D-02  .797770917416D-05  .515368840599D+04
     .460800000000D+06 -.931322574615D-08 -.185431075757D+01  .391155481339D-07
     .927445994774D+00  .212937500000D+03  .128616015092D+01 -.855678499587D-08
    -.314655963827D-09  .100000000000D+01  .175300000000D+04  .000000000000D+00
     .240000000000D+01  .000000000000D+00 -.791624188423D-08  .830000000000D+02
     .453606000000D+06  .400000000000D+01
21 13  8 16  8  0  0.0 -.313831958920D-03 -.193267624127D-11  .000000000000D+00
     .660000000000D+02  .575000000000D+01  .552415867481D-08 -.150338085728D+00
     .476837158203D-06  .204918289091D-01  .701658427715D-05  .515363867378D+04
     .460800000000D+06 -.745058059692D-07 -.284803245800D+01  .322237610817D-06
     .932039463916D+00  .233687500000D+03 -.211245617294D+01 -.884429697190D-08
     .347514475373D-09  .100000000000D+01  .175300000000D+04  .000000000000D+00
     .240000000000D+01  .000000000000D+00 -.111758708954D-07  .660000000000D+02
     .453606000000D+06  .400000000000D+01
22 13  8 16  8  0  0.0  .180228147656D-03  .147792889038D-11  .000000000000D+00
     .480000000000D+02  .200000000000D+01  .551237246958D-08 -.176230959214D+01
     .111758708954D-06  .681224942673D-02  .788830220699D-05  .515364345741D+04
     .460800000000D+06  .143423676491D-06 -.179848684965D+01  .670552253723D-07
     .924367962470D+00  .204250000000D+03 -.203198407764D+01 -.836499129261D-08
    -.227509476683D-09  .100000000000D+01  .175300000000D+04  .000000000000D+00
     .240000000000D+01  .000000000000D+00 -.172294676304D-07  .480000000000D+02
     .453606000000D+06  .400000000000D+01
23 13  8 16  8  0  0.0  .570737756789D-04 -.352429196937D-11  .000000000000D+00
     .560000000000D+02  .103937500000D+03  .463090718159D-08  .234697774495D+01
     .537000596523D-05  .885359931272D-02  .106245279312D-04  .515367857742D+04
     .460800000000D+06 -.212341547012D-06 -.739728595157D+00  .111758708954D-07
     .954840670409D+00  .172843750000D+03 -.283991653374D+01 -.800426198107D-08
    -.739316509786D-10  .100000000000D+01  .175300000000D+04  .000000000000D+00
     .240000000000D+01  .000000000000D+00 -.200234353542D-07  .560000000000D+02
     .453606000000D+06  .400000000000D+01
24 13  8 16  8  0  0.0 -.119335018098D-04 -.682121026330D-12  .000000000000D+00
     .140000000000D+02  .573437500000D+02  .477662753714D-08  .158958781088D+01
     .306591391563D-05  .974202528596D-03  .357814133167D-05  .515366945076D+04
     .460800000000D+06  .763684511185D-07  .286491689963D+00  .119209289551D-06
     .958843543431D+00  .306906250000D+03  .305094611227D+00 -.844892336014D-08
     .617882880159D-10  .100000000000D+01  .175300000000D+04  .000000000000D+00
     .240000000000D+01  .000000000000D+00  .325962901115D-08  .140000000000D+02
     .453606000000D+06  .400000000000D+01
